PANDORA
1 67395U 80229J   26027.00003472  .00000000  00000-0  37770-3 0    00
2 67395  97.7989  27.9122 0003966 219.8818  57.9993 14.87765293    05
